STARLINK-5768           
1 57145C 23090AW  26113.64562500  .00027949  00000+0  10124-2 0  1135
2 57145  43.0032   9.5913 0001153 256.9671 228.2858 15.27561325    12
STARLINK-5791           
1 57146C 23090AX  26113.63104167  .00025820  00000+0  93511-3 0  1134
2 57146  43.0006   9.3897 0001270 262.9109 262.1826 15.27568652    18
STARLINK-5765           
1 57147C 23090AY  26113.62756944  .00036932  00000+0  13379-2 0  1139
2 57147  43.0041   9.8267 0001484 260.9492  68.2643 15.27554725    12
STARLINK-5788           
1 57148C 23090AZ  26113.66645833  .00027957  00000+0  10382-2 0  1136
2 57148  43.0038   9.4851 0001403 253.4081 340.2988 15.26744118    17
STARLINK-5778           
1 57149C 23090BA  26113.65326389  .00384720  00000+0  27775-1 0  1135
2 57149  43.0007 351.2104 0001131 248.9695 256.4171 15.03164711    13
STARLINK-5780           
1 57150C 23090BB  26113.62548611  .00031254  00000+0  18295-2 0  1137
2 57150  43.0020  14.2888 0001405 264.5564 334.2174 15.11054237    16
STARLINK-5776           
1 57151C 23090BC  26113.69145833  .00026086  00000+0  94454-3 0  1133
2 57151  43.0002   9.2791 0001304 249.7983 148.8762 15.27576130    12
STARLINK-6164           
1 57152C 23090BD  26113.66090278  .00033278  00000+0  12058-2 0  1133
2 57152  43.0006   9.2680 0001292 261.8381  46.5859 15.27548017    11
STARLINK-5879           
1 57153C 23090BE  26113.63868056  .00027705  00000+0  10556-2 0  1137
2 57153  43.0034 358.3379 0001489 266.1789 175.5100 15.25895115    18
STARLINK-6106           
1 57154C 23090BF  26113.61993056  .00526370  00000+0  19476-1 0  1136
2 57154  43.0039   9.7825 0001014 255.5770  68.4920 15.26617843    14
STARLINK-6108           
1 57155C 23090BG  26113.68590278  .00029138  00000+0  10826-2 0  1134
2 57155  43.0038   9.5210 0001764 262.1910  18.9575 15.26727211    19
STARLINK-6137           
1 57156C 23090BH  26113.61993056  .00029724  00000+0  11043-2 0  1132
2 57156  43.0036   9.9265 0001777 261.8434   2.1184 15.26728068    15
STARLINK-5525           
1 57218C 23094A   26113.65534722 -.00005028  00000+0 -18684-3 0  1132
2 57218  43.0032 136.6110 0001622 269.3155 121.2307 15.26736635    18
STARLINK-5520           
1 57219C 23094B   26113.63729167  .00004163  00000+0  15858-3 0  1137
2 57219  43.0026 140.1712 0001390 257.3747   6.3365 15.25911761    17
STARLINK-5880           
1 57220C 23094C   26113.66368056 -.00008037  00000+0 -29854-3 0  1135
2 57220  43.0013 139.8288 0001014 271.8651 218.2263 15.26752664    13
STARLINK-5875           
1 57221C 23094D   26113.63520833  .00206280  00000+0  74788-2 0  1139
2 57221  43.0008 140.2791 0001996 280.5261 294.0065 15.27442745    15
STARLINK-5870           
1 57222C 23094E   26113.65881944 -.00021496  00000+0 -77840-3 0  1134
2 57222  43.0017 136.4591 0001565 279.2625 182.7411 15.27596086    18
STARLINK-5519           
1 57223C 23094F   26113.66923611 -.00013081  00000+0 -48615-3 0  1133
2 57223  43.0014 139.6657 0001413 271.0188 307.0218 15.26739172    11
STARLINK-5983           
1 57224C 23094G   26113.70256944 -.00051566  00000+0 -18675-2 0  1139
2 57224  43.0023 136.2605 0001485 285.4647  36.1888 15.27608260    13
STARLINK-6294           
1 57225C 23094H   26113.63659722  .00007124  00000+0  25800-3 0  1131
2 57225  43.0019 137.2795 0001500 279.8401 122.5688 15.27580904    15
STARLINK-6350           
1 57226C 23094J   26113.64909722 -.00011065  00000+0 -40072-3 0  1130
2 57226  43.0015 137.0253 0001577 270.3945 278.7731 15.27588585    18
STARLINK-5996           
1 57227C 23094K   26113.64840278  .00002367  00000+0  87939-4 0  1138
2 57227  43.0015 139.9583 0001325 270.4877 116.6245 15.26747217    10
STARLINK-6230           
1 57228C 23094L   26113.67340278 -.00021033  00000+0 -76178-3 0  1132
2 57228  43.0010 136.2322 0001236 264.5861 334.2854 15.27589965    14
STARLINK-6233           
1 57229C 23094M   26113.64701389 -.00030313  00000+0 -11256-2 0  1130
2 57229  43.0013 137.0154 0001619 265.0510 283.1426 15.26775067    18
STARLINK-6250           
1 57230C 23094N   26113.69145833 -.00017661  00000+0 -65644-3 0  1135
2 57230  43.0015 136.7382 0001563 278.5540 164.7877 15.26737740    11
STARLINK-5840           
1 57231C 23094P   26113.66645833 -.00015284  00000+0 -55355-3 0  1135
2 57231  43.0014 136.8745 0001449 272.6180  33.3600 15.27587749    11
STARLINK-5872           
1 57232C 23094Q   26113.69493056 -.00019872  00000+0 -71975-3 0  1130
2 57232  43.0017 136.6409 0001556 272.8910 218.1513 15.27589166    13
STARLINK-5866           
1 57233C 23094R   26113.63034722 -.00006763  00000+0 -25115-3 0  1136
2 57233  43.0036 136.8920 0002273 280.1377 268.4800 15.26759850    16
STARLINK-6368           
1 57234C 23094S   26113.70048611 -.00029519  00000+0 -10690-2 0  1132
2 57234  43.0008 136.1935 0001380 276.2553  62.2304 15.27598244    13
STARLINK-6360           
1 57235C 23094T   26113.62965278  .00000487  00000+0  17653-4 0  1130
2 57235  43.0017 136.8880 0001714 277.8007 270.4319 15.27583917    12
STARLINK-6315           
1 57236C 23094U   26113.66645833 -.00022192  00000+0 -82446-3 0  1137
2 57236  43.0027 125.9186 0002272 280.6613 246.0002 15.26754355    10
STARLINK-6365           
1 57237C 23094V   26113.67270833 -.00026313  00000+0 -95291-3 0  1134
2 57237  43.0018 136.5272 0001432 271.5333 203.2745 15.27596236    12
STARLINK-6334           
1 57238C 23094W   26113.67270833 -.00035766  00000+0 -12952-2 0  1139
2 57238  43.0014 126.0944 0001373 268.6690 198.1938 15.27601319    11
STARLINK-6330           
1 57239C 23094X   26113.65673611 -.00032662  00000+0 -12130-2 0  1139
2 57239  43.0025 136.3797 0001165 268.9258 212.8715 15.26773838    18
STARLINK-6351           
1 57240C 23094Y   26113.69979167 -.00044126  00000+0 -16392-2 0  1132
2 57240  43.0019 125.1060 0001343 268.4956 340.2678 15.26768610    16
STARLINK-6349           
1 57241C 23094Z   26113.69770833 -.00187880  00000+0 -69781-2 0  1137
2 57241  43.0043 125.6652 0001769 277.8010  93.3972 15.26845971    12
STARLINK-6306           
1 57242C 23094AA  26113.66298611 -.00020163  00000+0 -74901-3 0  1135
2 57242  43.0034 125.9118 0001774 276.1555 241.0043 15.26756092    11
STARLINK-6346           
1 57243C 23094AB  26113.66437500 -.00018656  00000+0 -69296-3 0  1133
2 57243  43.0012 126.0268 0001655 273.8121 198.7575 15.26759086    11
STARLINK-5610           
1 57244C 23094AC  26113.67965278 -.00044605  00000+0 -16570-2 0  1132
2 57244  43.0021 125.2726 0001444 266.4280 208.7632 15.26768709    10
STARLINK-5587           
1 57245C 23094AD  26113.67270833 -.00022693  00000+0 -82189-3 0  1132
2 57245  43.0017 126.1434 0001252 269.9512 175.6823 15.27592218    10
STARLINK-5049           
1 57246C 23094AE  26113.66993056 -.00022370  00000+0 -83088-3 0  1132
2 57246  43.0018 125.2517 0000886 267.4887 185.4487 15.26763062    15
STARLINK-5039           
1 57247C 23094AF  26113.67340278 -.00028190  00000+0 -10216-2 0  1134
2 57247  43.0011 125.4862 0001417 277.5646  87.8330 15.27575278    13
STARLINK-5514           
1 57248C 23094AG  26113.66229167 -.00028265  00000+0 -10241-2 0  1138
2 57248  43.0012 125.6001 0001412 276.7053   6.2660 15.27580400    14
STARLINK-5517           
1 57249C 23094AH  26113.70048611 -.00031391  00000+0 -11373-2 0  1138
2 57249  43.0010 125.3782 0002079 301.3381 170.7857 15.27585038    12
STARLINK-5488           
1 57250C 23094AJ  26113.64215278 -.00028281  00000+0 -10241-2 0  1135
2 57250  43.0027 125.9520 0001521 284.4243 148.6288 15.27599155    14
STARLINK-5513           
1 57251C 23094AK  26113.64215278 -.00019930  00000+0 -74047-3 0  1132
2 57251  43.0023 125.6597 0001358 272.6605 281.1434 15.26752422    14
STARLINK-5511           
1 57252C 23094AL  26113.68243056 -.00053190  00000+0 -19753-2 0  1130
2 57252  43.0024 125.3667 0001384 266.3325 175.5333 15.26783821    10
STARLINK-5516           
1 57253C 23094AM  26113.68381944 -.00030559  00000+0 -11356-2 0  1135
2 57253  43.0029 125.5570 0001483 277.4687  91.0516 15.26751148    17
STARLINK-5490           
1 57254C 23094AN  26113.62201389 -.00012709  00000+0 -47212-3 0  1132
2 57254  43.0023 125.6741 0001379 272.2493 211.0915 15.26754520    19
STARLINK-5481           
1 57255C 23094AP  26113.68798611 -.00029482  00000+0 -10954-2 0  1136
2 57255  43.0023 125.3216 0001302 272.3709 205.6985 15.26754480    12
STARLINK-5512           
1 57256C 23094AQ  26113.68937500 -.00034434  00000+0 -12472-2 0  1139
2 57256  43.0018 125.7763 0001741 269.2920  28.3210 15.27595281    19
STARLINK-5503           
1 57257C 23094AR  26113.62270833 -.00016589  00000+0 -60102-3 0  1138
2 57257  43.0012 126.1110 0001590 286.8137  18.0213 15.27577136    10
STARLINK-5476           
1 57258C 23094AS  26113.63868056 -.00012384  00000+0 -46001-3 0  1131
2 57258  43.0020 125.7283 0001312 270.7319 241.2941 15.26754329    10
STARLINK-5026           
1 57260C 23094AU  26113.61923611 -.00013687  00000+0 -50842-3 0  1136
2 57260  43.0016 125.8820 0001761 306.2192  81.0359 15.26756336    11
STARLINK-5485           
1 57261C 23094AV  26113.68798611 -.00040286  00000+0 -14965-2 0  1134
2 57261  43.0043 136.4694 0001646 308.0236 239.2738 15.26768371    10
STARLINK-5504           
1 57262C 23094AW  26113.66368056 -.00045128  00000+0 -16765-2 0  1139
2 57262  43.0020 125.5972 0001393 284.7751   1.1271 15.26768659    12
STARLINK-5509           
1 57263C 23094AX  26113.65881944 -.00005978  00000+0 -21646-3 0  1139
2 57263  43.0032 136.6211 0001936 273.8917 117.3696 15.27588185    17
STARLINK-5858           
1 57264C 23094AY  26113.69423611 -.00050527  00000+0 -18770-2 0  1130
2 57264  43.0044 125.6148 0002071 291.6189  84.4329 15.26771488    14
STARLINK-30198          
1 57290C 23096A   26113.69076389  .00011280  00000+0  48957-3 0  1139
2 57290  42.9944 331.4320 0003345 250.1708  30.0152 15.21529973    17
